[{"OBJECT_NAME":"NUSAT-40 (C SHOEMAKER)","OBJECT_ID":"2023-084M","EPOCH":"2026-03-09T21:55:25.524768","MEAN_MOTION":15.60857626,"ECCENTRICITY":0.00046247,"INCLINATION":97.4753,"RA_OF_ASC_NODE":208.8607,"ARG_OF_PERICENTER":253.3749,"MEAN_ANOMALY":106.7,"EPHEMERIS_TYPE":0,"CLASSIFICATION_TYPE":"U","NORAD_CAT_ID":56943,"ELEMENT_SET_NO":999,"REV_AT_EPOCH":15325,"BSTAR":0.00082402373,"MEAN_MOTION_DOT":0.00069155,"MEAN_MOTION_DDOT":0},{"OBJECT_NAME":"AETHER-1","OBJECT_ID":"2023-174AB","EPOCH":"2026-03-09T17:17:51.429696","MEAN_MOTION":15.59029667,"ECCENTRICITY":0.00048301,"INCLINATION":97.3866,"RA_OF_ASC_NODE":157.5943,"ARG_OF_PERICENTER":156.7796,"MEAN_ANOMALY":203.368,"EPHEMERIS_TYPE":0,"CLASSIFICATION_TYPE":"U","NORAD_CAT_ID":58281,"ELEMENT_SET_NO":999,"REV_AT_EPOCH":13035,"BSTAR":0.0011500755,"MEAN_MOTION_DOT":0.00090327,"MEAN_MOTION_DDOT":0}]
